{
    "links": {
        "self": "http://www.neowsapp.com/rest/v1/neo/3648743?api_key=iIulBulltgU6a56xZRHN4H3l9WmuAYTsLGpBGhQ2"
    },
    "id": "3648743",
    "neo_reference_id": "3648743",
    "name": "(2013 TH)",
    "designation": "2013 TH",
    "nasa_jpl_url": "http://ssd.jpl.nasa.gov/sbdb.cgi?sstr=3648743",
    "absolute_magnitude_h": 23.8,
    "estimated_diameter": {
        "kilometers": {
            "estimated_diameter_min": 0.046190746,
            "estimated_diameter_max": 0.1032856481
        },
        "meters": {
            "estimated_diameter_min": 46.1907460282,
            "estimated_diameter_max": 103.2856480504
        },
        "miles": {
            "estimated_diameter_min": 0.0287015901,
            "estimated_diameter_max": 0.0641787064
        },
        "feet": {
            "estimated_diameter_min": 151.544447199,
            "estimated_diameter_max": 338.8636855496
        }
    },
    "is_potentially_hazardous_asteroid": false,
    "close_approach_data": [
        {
            "close_approach_date": "2013-10-07",
            "close_approach_date_full": "2013-Oct-07 02:52",
            "epoch_date_close_approach": 1381114320000,
            "relative_velocity": {
                "kilometers_per_second": "6.9356400322",
                "kilometers_per_hour": "24968.3041160326",
                "miles_per_hour": "15514.3331880982"
            },
            "miss_distance": {
                "astronomical": "0.1305299911",
                "lunar": "50.7761665379",
                "kilometers": "19527008.639678957",
                "miles": "12133520.5298733266"
            },
            "orbiting_body": "Earth"
        }
    ],
    "orbital_data": {
        "orbit_id": "12",
        "orbit_determination_date": "2017-04-06 08:44:27",
        "first_observation_date": "2013-10-01",
        "last_observation_date": "2013-10-31",
        "data_arc_in_days": 30,
        "observations_used": 46,
        "orbit_uncertainty": "7",
        "minimum_orbit_intersection": ".130892",
        "jupiter_tisserand_invariant": "5.029",
        "epoch_osculation": "2459000.5",
        "eccentricity": ".1232586972281042",
        "semi_major_axis": "1.277899725764741",
        "inclination": "13.33264426820976",
        "ascending_node_longitude": "189.7859379909564",
        "orbital_period": "527.6471446164101",
        "perihelion_distance": "1.120387470378827",
        "perihelion_argument": "205.0656989302913",
        "aphelion_distance": "1.435411981150654",
        "perihelion_time": "2459234.178011743745",
        "mean_anomaly": "200.567536305148",
        "mean_motion": ".6822741365571371",
        "equinox": "J2000",
        "orbit_class": {
            "orbit_class_type": "AMO",
            "orbit_class_description": "Near-Earth asteroid orbits similar to that of 1221 Amor",
            "orbit_class_range": "1.017 AU < q (perihelion) < 1.3 AU"
        }
    },
    "is_sentry_object": false
}